{"fetched_at":"2026-03-29T02:12:04Z","count":15717,"tles":[{"name":"STARLINK-4727","line1":"1 53803U 22111AG  26087.48546760 -.00000292  00000+0 -23004-6 0  9998","line2":"2 53803  53.2164 164.7901 0001185  90.5028 269.6100 15.08845931196867","category":"Starlink"}]}